NORAD_CAT_ID,OBJECT_NAME,OBJECT_TYPE,EPOCH,MEAN_MOTION,ECCENTRICITY,INCLINATION,RA_OF_ASC_NODE,ARG_OF_PERICENTER,MEAN_ANOMALY,BSTAR,MEAN_MOTION_DOT,MEAN_MOTION_DDOT,TLE_LINE0,TLE_LINE1,TLE_LINE2,SEMIMAJOR_AXIS,PERIOD,APOGEE,PERIGEE,DECAYED
52129.0,STARLINK-3661,PAYLOAD,2024-04-18 10:58:27,15.08830502,0.0001331,53.2168,287.6878,123.4015,236.7105,-5.4543e-05,-1.156e-05,0.0,0 STARLINK-3661,1 52129U 22029AT  24109.45726680 -.00001156  00000-0 -54543-4 0  9998,2 52129  53.2168 287.6878 0001331 123.4015 236.7105 15.08830502116730,6917.909,95.438,540.695,538.854,0.0
52129.0,STARLINK-3661,PAYLOAD,2024-04-18 17:20:00,15.08839226,0.0001412,53.2187,286.507,95.401,264.7143,7.6173e-06,-1.67e-06,0.0,0 STARLINK-3661,1 52129U 22029AT  24109.72222344 -.00000167  00000-0  76173-5 0  9990,2 52129  53.2187 286.5070 0001412  95.4010 264.7143 15.08839226116775,6917.883,95.438,540.725,538.771,0.0
52129.0,STARLINK-3661,PAYLOAD,2024-04-19 12:24:38,15.08836485,0.0001511,53.2187,282.9379,105.2225,254.8934,0.00035494,5.365e-05,0.0,0 STARLINK-3661,1 52129U 22029AT  24110.51710740  .00005365  00000-0  35494-3 0  9994,2 52129  53.2187 282.9379 0001511 105.2225 254.8934 15.08836485116890,6917.891,95.438,540.801,538.711,0.0
52129.0,STARLINK-3661,PAYLOAD,2024-04-19 18:46:10,15.08841597,0.0001286,53.2179,281.7484,83.9547,276.1592,0.00028843,4.306e-05,0.0,0 STARLINK-3661,1 52129U 22029AT  24110.78206693  .00004306  00000-0  28843-3 0  9994,2 52129  53.2179 281.7484 0001286  83.9547 276.1592 15.08841597116935,6917.876,95.437,540.63,538.851,0.0
52129.0,STARLINK-3661,PAYLOAD,2024-04-20 20:12:21,15.08822997,0.0001561,53.2168,276.9886,78.0914,282.0253,-0.00016552,-2.92e-05,0.0,0 STARLINK-3661,1 52129U 22029AT  24111.84191963 -.00002920  00000-0 -16552-3 0  9991,2 52129  53.2168 276.9886 0001561  78.0914 282.0253 15.08822997117095,6917.932,95.439,540.877,538.717,0.0
52129.0,STARLINK-3661,PAYLOAD,2024-04-21 10:30:49,15.0883404,0.000125,53.2176,274.3072,108.2471,251.8657,-0.00015179,-2.702e-05,0.0,0 STARLINK-3661,1 52129U 22029AT  24112.43807700 -.00002702  00000-0 -15179-3 0  9992,2 52129  53.2176 274.3072 0001250 108.2471 251.8657 15.08834040117186,6917.899,95.438,540.628,538.899,0.0
52129.0,STARLINK-3661,PAYLOAD,2024-04-21 18:27:45,15.08856428,0.0001546,53.217,272.8234,78.7943,281.3223,0.00056278,8.684e-05,0.0,0 STARLINK-3661,1 52129U 22029AT  24112.76927152  .00008684  00000-0  56278-3 0  9990,2 52129  53.2170 272.8234 0001546  78.7943 281.3223 15.08856428117233,6917.83,95.437,540.765,538.626,0.0
52129.0,STARLINK-3661,PAYLOAD,2024-04-22 10:21:36,15.0884746,0.0002095,53.2166,269.8558,64.4416,295.6793,0.00051543,7.926e-05,0.0,0 STARLINK-3661,1 52129U 22029AT  24113.43167498  .00007926  00000-0  51543-3 0  9992,2 52129  53.2166 269.8558 0002095  64.4416 295.6793 15.08847460117337,6917.858,95.437,541.172,538.273,0.0
52129.0,STARLINK-3661,PAYLOAD,2024-04-22 16:43:09,15.08844708,0.0001413,53.2173,268.6573,96.5458,263.5695,0.00031193,4.681e-05,0.0,0 STARLINK-3661,1 52129U 22029AT  24113.69663427  .00004681  00000-0  31193-3 0  9997,2 52129  53.2173 268.6573 0001413  96.5458 263.5695 15.08844708117375,6917.866,95.437,540.708,538.754,0.0
52129.0,STARLINK-3661,PAYLOAD,2024-04-23 13:23:09,15.08846365,0.0001428,53.2174,264.7931,91.38,268.7356,-5.9836e-05,-1.24e-05,0.0,0 STARLINK-3661,1 52129U 22029AT  24114.55775226 -.00001240  00000-0 -59836-4 0  9999,2 52129  53.2174 264.7931 0001428  91.3800 268.7356 15.08846365117508,6917.861,95.437,540.714,538.738,0.0
52129.0,STARLINK-3661,PAYLOAD,2024-04-23 16:33:56,15.08846235,0.0001479,53.2175,264.1986,91.0224,269.0937,-4.4317e-05,-9.93e-06,0.0,0 STARLINK-3661,1 52129U 22029AT  24114.69023182 -.00000993  00000-0 -44317-4 0  9993,2 52129  53.2175 264.1986 0001479  91.0224 269.0937 15.08846235117523,6917.861,95.437,540.749,538.703,0.0
52129.0,STARLINK-3661,PAYLOAD,2024-04-24 13:13:57,15.08835048,0.0001471,53.2181,260.3333,102.5751,257.5406,4.6564e-05,4.53e-06,0.0,0 STARLINK-3661,1 52129U 22029AT  24115.55135713  .00000453  00000-0  46564-4 0  9998,2 52129  53.2181 260.3333 0001471 102.5751 257.5406 15.08835048117656,6917.896,95.438,540.778,538.743,0.0
52129.0,STARLINK-3661,PAYLOAD,2024-04-24 14:49:20,15.0883393,0.0001477,53.2181,260.0357,107.6273,252.488,3.0543e-05,1.98e-06,0.0,0 STARLINK-3661,1 52129U 22029AT  24115.61759785  .00000198  00000-0  30543-4 0  9992,2 52129  53.2181 260.0357 0001477 107.6273 252.4880 15.08833930117669,6917.899,95.438,540.786,538.742,0.0
52129.0,STARLINK-3661,PAYLOAD,2024-04-25 13:04:41,15.08865462,0.0001245,53.2176,255.8708,92.5557,267.5578,0.0002336,3.434e-05,0.0,0 STARLINK-3661,1 52129U 22029AT  24116.54492290  .00003434  00000-0  23360-3 0  9994,2 52129  53.2176 255.8708 0001245  92.5557 267.5578 15.08865462117807,6917.803,95.436,540.529,538.806,0.0
52129.0,STARLINK-3661,PAYLOAD,2024-04-25 14:40:07,15.08820301,0.0001358,53.2176,255.5746,71.9315,288.1825,-0.00015419,-2.74e-05,0.0,0 STARLINK-3661,1 52129U 22029AT  24116.61119765 -.00002740  00000-0 -15419-3 0  9992,2 52129  53.2176 255.5746 0001358  71.9315 288.1825 15.08820301117812,6917.941,95.439,540.745,538.866,0.0
52129.0,STARLINK-3661,PAYLOAD,2024-04-26 12:55:32,15.08822744,0.0002052,53.2183,251.4156,119.8241,240.2956,-0.00013896,-2.498e-05,0.0,0 STARLINK-3661,1 52129U 22029AT  24117.53856689 -.00002498  00000-0 -13896-3 0  9994,2 52129  53.2183 251.4156 0002052 119.8241 240.2956 15.08822744117954,6917.933,95.439,541.218,538.379,0.0
52129.0,STARLINK-3661,PAYLOAD,2024-04-26 14:30:54,15.08828092,0.0001484,53.2174,251.1142,107.1719,252.9436,4.5153e-05,4.31e-06,0.0,0 STARLINK-3661,1 52129U 22029AT  24117.60480298  .00000431  00000-0  45153-4 0  9996,2 52129  53.2174 251.1142 0001484 107.1719 252.9436 15.08828092117960,6917.917,95.438,540.808,538.755,0.0
52129.0,STARLINK-3661,PAYLOAD,2024-04-26 16:06:18,15.08829127,0.0001403,53.2182,250.8233,104.2146,255.9002,8.4489e-05,1.057e-05,0.0,0 STARLINK-3661,1 52129U 22029AT  24117.67104289  .00001057  00000-0  84489-4 0  9996,2 52129  53.2182 250.8233 0001403 104.2146 255.9002 15.08829127117972,6917.914,95.438,540.749,538.808,0.0
52129.0,STARLINK-3661,PAYLOAD,2024-04-27 01:38:34,15.08862448,0.0001115,53.2176,249.032,100.0788,260.033,4.1297e-05,3.7e-06,0.0,0 STARLINK-3661,1 52129U 22029AT  24118.06845492  .00000370  00000-0  41297-4 0  9995,2 52129  53.2176 249.0320 0001115 100.0788 260.0330 15.08862448118030,6917.812,95.436,540.448,538.905,0.0
52129.0,STARLINK-3661,PAYLOAD,2024-04-27 12:46:18,15.08811828,0.0001615,53.2187,246.9578,83.2596,276.858,0.00017248,2.456e-05,0.0,0 STARLINK-3661,1 52129U 22029AT  24118.53216230  .00002456  00000-0  17248-3 0  9994,2 52129  53.2187 246.9578 0001615  83.2596 276.8580 15.08811828118103,6917.967,95.439,540.949,538.714,0.0
52129.0,STARLINK-3661,PAYLOAD,2024-04-27 14:21:41,15.08813198,0.0001685,53.2186,246.6601,82.0573,278.0611,0.00018051,2.584e-05,0.0,0 STARLINK-3661,1 52129U 22029AT  24118.59840258  .00002584  00000-0  18051-3 0  9998,2 52129  53.2186 246.6601 0001685  82.0573 278.0611 15.08813198118117,6917.962,95.439,540.993,538.662,0.0
52129.0,STARLINK-3661,PAYLOAD,2024-04-27 15:57:04,15.08824909,0.0001412,53.2181,246.3578,81.3027,278.8125,0.00027584,4.103e-05,0.0,0 STARLINK-3661,1 52129U 22029AT  24118.66463269  .00004103  00000-0  27584-3 0  9999,2 52129  53.2181 246.3578 0001412  81.3027 278.8125 15.08824909118127,6917.927,95.439,540.768,538.815,0.0
52129.0,STARLINK-3661,PAYLOAD,2024-04-28 12:37:06,15.08827703,0.0001256,53.2176,242.4942,83.5715,276.542,-5.3192e-06,-3.72e-06,0.0,0 STARLINK-3661,1 52129U 22029AT  24119.52577065 -.00000372  00000-0 -53192-5 0  9997,2 52129  53.2176 242.4942 0001256  83.5715 276.5420 15.08827703118259,6917.918,95.438,540.652,538.914,0.0
52129.0,STARLINK-3661,PAYLOAD,2024-04-28 14:12:29,15.08831729,0.0001632,53.2184,242.1976,82.4432,277.6745,-9.3264e-05,-1.772e-05,0.0,0 STARLINK-3661,1 52129U 22029AT  24119.59201174 -.00001772  00000-0 -93264-4 0  9997,2 52129  53.2184 242.1976 0001632  82.4432 277.6745 15.08831729118260,6917.906,95.438,540.9,538.642,0.0
52129.0,STARLINK-3661,PAYLOAD,2024-04-28 15:47:52,15.08833719,0.0001637,53.2185,241.9001,82.4116,277.7062,-0.00011469,-2.113e-05,0.0,0 STARLINK-3661,1 52129U 22029AT  24119.65825141 -.00002113  00000-0 -11469-3 0  9996,2 52129  53.2185 241.9001 0001637  82.4116 277.7062 15.08833719118276,6917.9,95.438,540.897,538.632,0.0
52129.0,STARLINK-3661,PAYLOAD,2024-04-29 01:20:11,15.08840687,0.0001251,53.2183,240.1138,87.3185,272.795,-5.1395e-05,-1.106e-05,0.0,0 STARLINK-3661,1 52129U 22029AT  24120.05568518 -.00001106  00000-0 -51395-4 0  9998,2 52129  53.2183 240.1138 0001251  87.3185 272.7950 15.08840687118338,6917.878,95.438,540.609,538.878,0.0
52129.0,STARLINK-3661,PAYLOAD,2024-04-29 12:27:53,15.08826171,0.0001138,53.2181,238.0322,97.183,262.9292,0.00015401,2.163e-05,0.0,0 STARLINK-3661,1 52129U 22029AT  24120.51936952  .00002163  00000-0  15401-3 0  9999,2 52129  53.2181 238.0322 0001138  97.1830 262.9292 15.08826171118407,6917.923,95.438,540.575,539.0,0.0
52129.0,STARLINK-3661,PAYLOAD,2024-04-29 14:03:16,15.08821534,9.01e-05,53.218,237.7355,82.779,277.3305,0.00022707,3.326e-05,0.0,0 STARLINK-3661,1 52129U 22029AT  24120.58561106  .00003326  00000-0  22707-3 0  9990,2 52129  53.2180 237.7355 0000901  82.7790 277.3305 15.08821534118414,6917.937,95.439,540.425,539.179,0.0
52129.0,STARLINK-3661,PAYLOAD,2024-04-30 01:10:57,15.08846272,0.0001428,53.2189,235.6544,94.8463,265.2692,0.00018377,2.638e-05,0.0,0 STARLINK-3661,1 52129U 22029AT  24121.04927659  .00002638  00000-0  18377-3 0  9994,2 52129  53.2189 235.6544 0001428  94.8463 265.2692 15.08846272118484,6917.861,95.437,540.714,538.738,0.0
52129.0,STARLINK-3661,PAYLOAD,2024-04-30 12:18:40,15.08833719,0.0001684,53.2211,233.5713,119.2267,240.8893,0.0001674,2.377e-05,0.0,0 STARLINK-3661,1 52129U 22029AT  24121.51296519  .00002377  00000-0  16740-3 0  9992,2 52129  53.2211 233.5713 0001684 119.2267 240.8893 15.08833719118555,6917.9,95.438,540.93,538.6,0.0
